[{"OBJECT_NAME":"STARLINK-5704","OBJECT_ID":"2023-015AP","EPOCH":"2026-03-09T22:00:01.999584","MEAN_MOTION":15.08964077,"ECCENTRICITY":7.22e-5,"INCLINATION":42.9997,"RA_OF_ASC_NODE":337.5508,"ARG_OF_PERICENTER":237.0388,"MEAN_ANOMALY":345.3191,"EPHEMERIS_TYPE":0,"CLASSIFICATION_TYPE":"U","NORAD_CAT_ID":55486,"ELEMENT_SET_NO":999,"REV_AT_EPOCH":577,"BSTAR":0.0029909145,"MEAN_MOTION_DOT":0.00048162,"MEAN_MOTION_DDOT":0},{"OBJECT_NAME":"OBJECT D","OBJECT_ID":"2025-055D","EPOCH":"2026-03-09T22:34:08.531328","MEAN_MOTION":15.14873304,"ECCENTRICITY":0.00167206,"INCLINATION":97.6361,"RA_OF_ASC_NODE":208.0641,"ARG_OF_PERICENTER":122.8096,"MEAN_ANOMALY":237.4749,"EPHEMERIS_TYPE":0,"CLASSIFICATION_TYPE":"U","NORAD_CAT_ID":63294,"ELEMENT_SET_NO":999,"REV_AT_EPOCH":5397,"BSTAR":0.00070425888,"MEAN_MOTION_DOT":0.00013093,"MEAN_MOTION_DDOT":0}]
